STARLINK-32882          
1 62963U 25029R   26193.82293944  .00014130  00000+0  42847-3 0  9992
2 62963  53.1599   7.1407 0001006  83.0331 277.0786 15.34403937 80536
STARLINK-32887          
1 62964U 25029S   26193.86082503  .00017447  00000+0  52618-3 0  9995
2 62964  53.1588   7.3806 0001009  76.0268 284.0847 15.34407331 80532
STARLINK-32836          
1 62965U 25029T   26193.74526867  .00012873  00000+0  39135-3 0  9996
2 62965  53.1597   8.0806 0000904  59.4614 300.6477 15.34410614 80514
STARLINK-32888          
1 62966U 25029U   26193.83335647  .00015086  00000+0  45694-3 0  9997
2 62966  53.1609  11.3032 0000863  77.2679   8.9910 15.34384691  5758
STARLINK-32897          
1 62967U 25029V   26193.81088789  .00024331  00000+0  72842-3 0  9996
2 62967  53.1614   9.1880 0000852 113.9008 246.2084 15.34420723 80505
STARLINK-32863          
1 62968U 25029W   26193.87303838  .00011644  00000+0  38622-3 0  9999
2 62968  53.1605  10.2895 0001131  78.8298 281.2830 15.31714905 79631
STARLINK-32894          
1 62969U 25029X   26193.78954117  .00009925  00000+0  34672-3 0  9992
2 62969  53.1593  11.1857 0000904  68.3998 291.7099 15.30204157 80473
STARLINK-32826          
1 62970U 25029Y   26193.78321654  .00018316  00000+0  62907-3 0  9994
2 62970  53.1582  11.1458 0001234  72.0960 288.0176 15.30196106 80477
STARLINK-11543 [DTC]    
1 62981U 25031A   26193.74125832  .00147564  00000+0  11322-2 0  9997
2 62981  42.9990 327.3451 0001471 279.8613  80.2089 15.70860580 82417
STARLINK-11458 [DTC]    
1 62982U 25031B   26193.43926814  .00161341  00000+0  12353-2 0  9997
2 62982  42.9991 329.3878 0003532 281.1899  78.8571 15.70859767 82364
STARLINK-11417 [DTC]    
1 62983U 25031C   26193.79435064  .00148997  00000+0  11419-2 0  9993
2 62983  42.9998 327.7703 0001425 290.7955  69.2759 15.70883159 82419
STARLINK-11544 [DTC]    
1 62984U 25031D   26193.68829025  .00117293  00000+0  90401-3 0  9990
2 62984  43.0003 327.8116 0001869 244.9619 115.1055 15.70858700 82377
STARLINK-11582 [DTC]    
1 62985U 25031E   26193.44988751  .00108613  00000+0  83763-3 0  9996
2 62985  42.9978 329.4712 0003967 290.0752  69.9689 15.70869869 82364
STARLINK-11571 [DTC]    
1 62986U 25031F   26193.83335647 -.00051478  00000+0 -39996-3 0  9997
2 62986  43.0003 326.7159 0001644 271.1498 280.4331 15.70851307  6029
STARLINK-11539 [DTC]    
1 62987U 25031G   26193.44457623  .00153153  00000+0  11747-2 0  9998
2 62987  42.9992 329.4280 0002386 272.2507  87.8087 15.70847936 82368
STARLINK-11542 [DTC]    
1 62988U 25031H   26193.42864888  .00181994  00000+0  13879-2 0  9994
2 62988  42.9989 329.2996 0002819 277.1431  82.9116 15.70891714 82337
STARLINK-11573 [DTC]    
1 62989U 25031J   26193.46050712  .00140360  00000+0  10782-2 0  9994
2 62989  42.9986 329.5565 0004045 292.8984  67.1456 15.70849968 82336
STARLINK-11572 [DTC]    
1 62990U 25031K   26193.75276389  .00130759  00000+0  10026-2 0  9990
2 62990  43.0022 327.4330 0007151 244.5055 115.5074 15.70906417 82418
STARLINK-11583 [DTC]    
1 62991U 25031L   26193.40223216  .00103991  00000+0  80121-3 0  9996
2 62991  42.9984 329.9811 0002375 272.5075  87.5521 15.70915721 82368
STARLINK-11570 [DTC]    
1 62992U 25031M   26193.78903859  .00167360  00000+0  12784-2 0  9995
2 62992  43.0013 327.7279 0002750 297.2124  62.8463 15.70898646 82406
STARLINK-11576 [DTC]    
1 62993U 25031N   26193.51878034  .00136813  00000+0  10468-2 0  9999
2 62993  42.9957 329.1251 0002643 309.1439  50.9194 15.70961837 82368
STARLINK-32899          
1 62994U 25031P   26193.33498577  .00016735  00000+0  61612-3 0  9998
2 62994  42.9975 159.7903 0002028 247.0721 112.9916 15.27588054 80155
STARLINK-32819          
1 62995U 25031Q   26193.23619557 -.00011159  00000+0 -39693-3 0  9992
2 62995  43.0001 159.9049 0001656 283.6079  76.4588 15.27550377 80144
STARLINK-32703          
1 62996U 25031R   26193.26445625  .00011523  00000+0  42759-3 0  9999
2 62996  43.0039 160.1173 0002579 245.2829 114.7754 15.27579987 80149
STARLINK-32881          
1 62997U 25031S   26193.29130464  .00009585  00000+0  35716-3 0  9995
2 62997  43.0008 159.4597 0001420 301.5812  58.4901 15.27601496 80159
STARLINK-32898          
1 62998U 25031T   26193.38881631  .00011457  00000+0  42516-3 0  9992
2 62998  42.9956 159.3378 0001106 339.9934  20.0874 15.27584189 80161
STARLINK-32658          
1 62999U 25031U   26193.29514752  .00008667  00000+0  32401-3 0  9991
2 62999  43.0014 159.4890 0001713 259.4099 100.6559 15.27588460 80151
STARLINK-32673          
1 63000U 25031V   26193.31315616  .00014009  00000+0  51753-3 0  9994
2 63000  43.0000 159.6227 0001405 277.3345  82.7347 15.27585167 80153
STARLINK-32437          
1 63001U 25031W   26193.33883019 -.00000485  00000+0 -80968-5 0  9991
2 63001  42.9988 159.8193 0001553 272.2062  87.8612 15.27605286 80151
STARLINK-11448 [DTC]    
1 63005U 25032A   26193.28600672  .00148384  00000+0  11389-2 0  9999
2 63005  42.9991 163.9524 0001558 272.4284  87.6405 15.70848447 81825
