OBJECT_NAME,OBJECT_ID,EPOCH,MEAN_MOTION,ECCENTRICITY,INCLINATION,RA_OF_ASC_NODE,ARG_OF_PERICENTER,MEAN_ANOMALY,EPHEMERIS_TYPE,CLASSIFICATION_TYPE,NORAD_CAT_ID,ELEMENT_SET_NO,REV_AT_EPOCH,BSTAR,MEAN_MOTION_DOT,MEAN_MOTION_DDOT
STARLINK-32882,2025-029R,2026-07-12T19:45:01.967616,15.34403937,.0001006,53.1599,7.1407,83.0331,277.0786,0,U,62963,999,8053,.42847E-3,.1413E-3,0
STARLINK-32887,2025-029S,2026-07-12T20:39:35.282592,15.34407331,.0001009,53.1588,7.3806,76.0268,284.0847,0,U,62964,999,8053,.52618E-3,.17447E-3,0
STARLINK-32836,2025-029T,2026-07-12T17:53:11.213088,15.34410614,.0000904,53.1597,8.0806,59.4614,300.6477,0,U,62965,999,8051,.39135E-3,.12873E-3,0
STARLINK-32888,2025-029U,2026-07-12T20:00:01.999008,15.34384691,.0000863,53.1609,11.3032,77.2679,8.9910,0,U,62966,999,575,.45694E-3,.15086E-3,0
STARLINK-32897,2025-029V,2026-07-12T19:27:40.713696,15.34420723,.0000852,53.1614,9.1880,113.9008,246.2084,0,U,62967,999,8050,.72842E-3,.24331E-3,0
STARLINK-32863,2025-029W,2026-07-12T20:57:10.516032,15.31714905,.0001131,53.1605,10.2895,78.8298,281.2830,0,U,62968,999,7963,.38622E-3,.11644E-3,0
STARLINK-32894,2025-029X,2026-07-12T18:56:56.357088,15.30204157,.0000904,53.1593,11.1857,68.3998,291.7099,0,U,62969,999,8047,.34672E-3,.9925E-4,0
STARLINK-32826,2025-029Y,2026-07-12T18:47:49.909056,15.30196106,.0001234,53.1582,11.1458,72.0960,288.0176,0,U,62970,999,8047,.62907E-3,.18316E-3,0
STARLINK-11543 [DTC],2025-031A,2026-07-12T17:47:24.718848,15.70860580,.0001471,42.9990,327.3451,279.8613,80.2089,0,U,62981,999,8241,.11322E-2,.147564E-2,0
STARLINK-11458 [DTC],2025-031B,2026-07-12T10:32:32.767296,15.70859767,.00035323,42.9991,329.3878,281.1899,78.8571,0,U,62982,999,8236,.12353499E-2,.161341E-2,0
STARLINK-11417 [DTC],2025-031C,2026-07-12T19:03:51.895296,15.70883159,.0001425,42.9998,327.7703,290.7955,69.2759,0,U,62983,999,8241,.11419E-2,.148997E-2,0
STARLINK-11544 [DTC],2025-031D,2026-07-12T16:31:08.277600,15.70858700,.0001869,43.0003,327.8116,244.9619,115.1055,0,U,62984,999,8237,.90401E-3,.117293E-2,0
STARLINK-11582 [DTC],2025-031E,2026-07-12T10:47:50.280864,15.70869869,.00039678,42.9978,329.4712,290.0752,69.9689,0,U,62985,999,8236,.83762526E-3,.108613E-2,0
STARLINK-11571 [DTC],2025-031F,2026-07-12T20:00:01.999008,15.70851307,.0001644,43.0003,326.7159,271.1498,280.4331,0,U,62986,999,602,-.39996E-3,-.51478E-3,0
STARLINK-11539 [DTC],2025-031G,2026-07-12T10:40:11.386272,15.70847936,.00023864,42.9992,329.4280,272.2507,87.8087,0,U,62987,999,8236,.11747308E-2,.153153E-2,0
STARLINK-11542 [DTC],2025-031H,2026-07-12T10:17:15.263232,15.70891714,.0002819,42.9989,329.2996,277.1431,82.9116,0,U,62988,999,8233,.13878514E-2,.181994E-2,0
STARLINK-11573 [DTC],2025-031J,2026-07-12T11:03:07.815168,15.70849968,.00040458,42.9986,329.5565,292.8984,67.1456,0,U,62989,999,8233,.10782177E-2,.14036E-2,0
STARLINK-11572 [DTC],2025-031K,2026-07-12T18:03:58.800096,15.70906417,.0007151,43.0022,327.4330,244.5055,115.5074,0,U,62990,999,8241,.10026E-2,.130759E-2,0
STARLINK-11583 [DTC],2025-031L,2026-07-12T09:39:12.858624,15.70915721,.00023753,42.9984,329.9811,272.5075,87.5521,0,U,62991,999,8236,.80121255E-3,.103991E-2,0
STARLINK-11570 [DTC],2025-031M,2026-07-12T18:56:12.934176,15.70898646,.000275,43.0013,327.7279,297.2124,62.8463,0,U,62992,999,8240,.12784E-2,.16736E-2,0
STARLINK-11576 [DTC],2025-031N,2026-07-12T12:27:02.621376,15.70961837,.00026439,42.9957,329.1251,309.1439,50.9194,0,U,62993,999,8236,.10467951E-2,.136813E-2,0
STARLINK-32899,2025-031P,2026-07-12T08:02:22.770528,15.27588054,.00020288,42.9975,159.7903,247.0721,112.9916,0,U,62994,999,8015,.61611542E-3,.16735E-3,0
STARLINK-32819,2025-031Q,2026-07-12T05:40:07.297248,15.27550377,.0001656,43.0001,159.9049,283.6079,76.4588,0,U,62995,999,8014,-.39693E-3,-.11159E-3,0
STARLINK-32703,2025-031R,2026-07-12T06:20:49.020000,15.27579987,.0002579,43.0039,160.1173,245.2829,114.7754,0,U,62996,999,8014,.42759E-3,.11523E-3,0
STARLINK-32881,2025-031S,2026-07-12T06:59:28.720896,15.27601496,.000142,43.0008,159.4597,301.5812,58.4901,0,U,62997,999,8015,.35716E-3,.9585E-4,0
STARLINK-32898,2025-031T,2026-07-12T09:19:53.729184,15.27584189,.0001106,42.9956,159.3378,339.9934,20.0874,0,U,62998,999,8016,.42515532E-3,.11457E-3,0
STARLINK-32658,2025-031U,2026-07-12T07:05:00.745728,15.27588460,.0001713,43.0014,159.4890,259.4099,100.6559,0,U,62999,999,8015,.32401E-3,.8667E-4,0
STARLINK-32673,2025-031V,2026-07-12T07:30:56.692224,15.27585167,.00014052,43.0000,159.6227,277.3345,82.7347,0,U,63000,999,8015,.51753036E-3,.14009E-3,0
STARLINK-32437,2025-031W,2026-07-12T08:07:54.928416,15.27605286,.00015533,42.9988,159.8193,272.2062,87.8612,0,U,63001,999,8015,-.8096759E-5,-.485E-5,0
STARLINK-11448 [DTC],2025-032A,2026-07-12T06:51:50.980608,15.70848447,.0001558,42.9991,163.9524,272.4284,87.6405,0,U,63005,999,8182,.11389E-2,.148384E-2,0
